MEAN_MOTION;ECCENTRICITY;INCLINATION;RA_OF_ASC_NODE;ARG_OF_PERICENTER;MEAN_ANOMALY;BSTAR;MEAN_MOTION_DOT;MEAN_MOTION_DDOT;TYPE
11.79388918;0.0014641;51.9863;191.5332;46.0175;136.6381;0.00015284;-7.1E-7;0;Globalstar
11.79388942;0.0014626;51.9862;189.1246;47.67;111.3469;5.1979E-5;-7.8E-7;0;Globalstar
11.79388956;0.0014617;51.9863;186.4767;49.4843;117.0968;-4.6583E-5;-8.4E-7;0;Globalstar
11.79388959;0.0014622;51.9862;184.7683;50.6812;27.8987;-8.0934E-5;-8.6E-7;0;Globalstar
11.79388975;0.0014622;51.9862;183.8326;51.3212;116.3925;-3.5038E-5;-8.3E-7;0;Globalstar
11.79388975;0.0014615;51.9862;182.3663;52.3341;351.7805;-1.4735E-6;-8.1E-7;0;Globalstar
11.79388959;0.0014614;51.9862;181.4155;53.0021;104.9709;1.966E-5;-8.0E-7;0;Globalstar
11.79388844;0.0014609;51.9861;178.7678;54.8235;110.3152;-7.0907E-5;-8.5E-7;0;Globalstar
11.79388916;0.0014631;51.9863;176.3492;56.6074;101.0965;-1.7996E-6;-8.1E-7;0;Globalstar
11.79388977;0.0014621;51.986;174.4148;57.856;21.0968;0.00034974;-5.9E-7;0;Globalstar
11.79389085;0.0014611;51.9861;171.28;59.9485;102.3468;0.00058769;-4.4E-7;0;Globalstar
11.79389125;0.0014609;51.9861;168.8928;61.5657;42.2284;0.00057496;-4.5E-7;0;Globalstar
11.79388944;0.0014592;51.9862;165.9973;63.5704;92.1449;-6.5853E-5;-8.5E-7;0;Globalstar
11.79388918;0.0014584;51.9861;163.8285;65.0528;35.0999;-7.5936E-5;-8.6E-7;0;Globalstar
11.79388944;0.0014575;51.9861;161.1834;66.8924;35.883;-2.5067E-5;-8.3E-7;0;Globalstar
11.79388956;0.0014562;51.986;159.4748;68.0606;306.9317;7.1114E-6;-8.1E-7;0;Globalstar
11.79388963;0.0014565;51.986;158.9961;68.3698;9.0454;1.2124E-5;-8.0E-7;0;Globalstar
11.79389075;0.0014565;51.9858;156.1195;70.3448;28.6729;-3.3372E-5;-8.3E-7;0;Globalstar
11.79388984;0.0014544;51.9857;153.4743;72.1512;29.6256;-0.00015993;-9.1E-7;0;Globalstar
11.79388962;0.0014546;51.9856;153.2803;72.2818;346.6505;-0.0001817;-9.2E-7;0;Globalstar
11.79388981;0.0014532;51.9857;150.5784;74.1281;79.6643;5.9633E-5;-7.7E-7;0;Globalstar
11.79388967;0.0014529;51.9857;148.6402;75.4625;5.7442;2.4546E-5;-7.9E-7;0;Globalstar
11.79388843;0.0014516;51.9856;146.4646;76.9713;319.5487;-0.00019407;-9.3E-7;0;Globalstar
11.79388836;0.0014519;51.9855;145.2824;77.7731;90.5912;-0.0001901;-9.3E-7;0;Globalstar
11.79388835;0.0014517;51.9855;143.1178;79.2735;26.5626;-0.00018536;-9.3E-7;0;Globalstar
11.79388842;0.001451;51.9855;140.4531;81.1111;59.412;-0.00013431;-8.9E-7;0;Globalstar
11.79388815;0.0014503;51.9854;138.7549;82.2723;313.4307;-0.00014656;-9.0E-7;0;Globalstar
11.79388835;0.00145;51.9854;137.8045;82.8988;66.0344;-8.9068E-5;-8.7E-7;0;Globalstar
11.79388814;0.0014493;51.9854;135.3868;84.5755;55.2002;-7.7787E-5;-8.6E-7;0;Globalstar
11.79388788;0.0014488;51.9854;133.6889;85.7669;308.6932;-0.00011575;-8.8E-7;0;Globalstar
11.79388757;0.001448;51.9853;131.0451;87.5846;307.2816;-0.00013261;-8.9E-7;0;Globalstar
11.79388756;0.001448;51.9853;130.0943;88.2269;60.4602;-0.00012324;-8.9E-7;0;Globalstar
11.7938875;0.0014473;51.9852;127.4494;90.028;60.6886;-0.00011246;-8.8E-7;0;Globalstar
11.79388781;0.0014466;51.9853;125.4953;91.3606;12.7967;-5.834E-5;-8.5E-7;0;Globalstar
11.79388824;0.0014463;51.9853;122.384;93.5028;54.955;-7.1339E-6;-8.1E-7;0;Globalstar
11.79388859;0.0014454;51.9848;119.7284;95.3357;73.01;-8.7688E-5;-8.7E-7;0;Globalstar
11.7938886;0.0014449;51.9848;118.4926;96.1811;291.4843;-3.2056E-5;-8.3E-7;0;Globalstar
11.79388906;0.0014443;51.9849;115.8476;97.9857;291.8751;0.00015589;-7.1E-7;0;Globalstar
11.79388907;0.0014442;51.9849;114.9236;98.6133;1.0698;0.00018065;-7.0E-7;0;Globalstar
11.79388925;0.0014437;51.9849;112.7358;100.1116;334.6211;0.00022737;-6.7E-7;0;Globalstar
11.79388933;0.0014436;51.985;112.2781;100.425;2.2538;0.00026509;-6.4E-7;0;Globalstar
11.79388977;0.0014429;51.9853;108.1521;103.255;261.954;0.00031021;-6.1E-7;0;Globalstar
11.79388986;0.0014427;51.9854;105.5009;105.1426;272.5145;0.00017766;-7.0E-7;0;Globalstar
11.79388984;0.0014426;51.9855;103.8984;106.1762;10.1039;0.00010311;-7.4E-7;0;Globalstar
11.79388993;0.0014426;51.9856;101.6637;107.7938;60.3078;-4.9992E-6;-8.1E-7;0;Globalstar
11.79388969;0.0014416;51.9858;97.7911;110.4989;266.0176;-0.00022295;-9.5E-7;0;Globalstar
11.79388981;0.0014422;51.9858;96.3725;111.394;63.3772;-0.00022179;-9.5E-7;0;Globalstar
11.79388982;0.0014422;51.9859;95.1431;112.2395;271.5195;-0.00021762;-9.5E-7;0;Globalstar
11.79388989;0.0014417;51.9861;92.4739;114.09;311.4213;-0.0001866;-9.3E-7;0;Globalstar
11.7938898;0.0014419;51.9861;91.1255;114.9926;354.042;-0.00017176;-9.2E-7;0;Globalstar
11.79388989;0.0014422;51.9863;88.8997;116.5176;29.8582;-8.9187E-5;-8.7E-7;0;Globalstar
11.79388957;0.0014419;51.9866;86.2463;118.3279;44.2076;-4.2999E-5;-8.4E-7;0;Globalstar
11.7938896;0.0014416;51.9867;84.78;119.3376;279.329;1.5893E-5;-8.0E-7;0;Globalstar
11.79388969;0.0014417;51.9867;84.3135;119.6528;321.4958;4.9756E-5;-7.8E-7;0;Globalstar
11.79389002;0.0014412;51.9869;82.1282;121.1633;291.3059;0.00013893;-7.2E-7;0;Globalstar
11.79389018;0.0014406;51.9872;79.4694;122.9495;314.7303;0.00013402;-7.3E-7;0;Globalstar
11.79389052;0.0014411;51.9873;78.7918;123.3749;341.6952;0.00022537;-6.7E-7;0;Globalstar
11.7938907;0.001441;51.9876;76.8463;124.7209;279.7154;0.00019561;-6.9E-7;0;Globalstar
11.79389078;0.0014413;51.9876;75.8957;125.3629;32.7741;0.00020487;-6.8E-7;0;Globalstar
11.79389111;0.0014412;51.9879;73.2478;127.1878;38.3504;0.00013831;-7.2E-7;0;Globalstar
11.79389123;0.0014412;51.988;71.7602;128.2148;308.5383;7.3512E-5;-7.6E-7;0;Globalstar
11.79389094;0.0014416;51.9883;69.1371;130.0683;273.8339;-8.3938E-5;-8.6E-7;0;Globalstar
11.79389104;0.0014416;51.9883;68.1868;130.6932;26.3158;-6.5631E-5;-8.5E-7;0;Globalstar
11.79389101;0.0014426;51.9885;66.0195;132.1729;326.8687;-0.00010956;-8.8E-7;0;Globalstar
11.79389114;0.0014422;51.9885;65.1235;132.7709;350.6715;-0.00012344;-8.9E-7;0;Globalstar
11.7938921;0.0014428;51.9887;62.8908;134.3097;38.12;3.3596E-5;-7.9E-7;0;Globalstar
11.79389221;0.0014426;51.9888;61.4277;135.3317;268.0761;4.7439E-5;-7.8E-7;0;Globalstar
11.79389218;0.0014427;51.9888;60.7087;135.8374;2.6504;7.3386E-5;-7.6E-7;0;Globalstar
11.79389168;0.0014417;51.9889;59.0112;137.0358;255.7622;-3.2678E-6;-8.1E-7;0;Globalstar
11.79389224;0.0014427;51.989;56.1219;139.0018;295.8153;0.00011752;-7.4E-7;0;Globalstar
11.79389176;0.0014423;51.9891;55.182;139.6609;31.3679;4.3297E-5;-7.8E-7;0;Globalstar
11.79389188;0.0014425;51.9892;53.4764;140.8516;297.5944;9.4231E-5;-7.5E-7;0;Globalstar
11.79389196;0.0014414;51.9894;50.1212;143.2024;18.8551;0.00014173;-7.2E-7;0;Globalstar
11.7938925;0.0014416;51.9896;47.9552;144.7224;317.2783;0.00021318;-6.8E-7;0;Globalstar
11.79389297;0.0014413;51.9897;45.7665;146.2335;292.9475;0.0002378;-6.6E-7;0;Globalstar
11.7938926;0.0014404;51.9897;45.0599;146.7433;7.2796;0.00019414;-6.9E-7;0;Globalstar
11.79389261;0.001441;51.9898;43.1224;148.0713;292.7069;0.00013332;-7.3E-7;0;Globalstar
11.79389226;0.0014414;51.9898;42.4082;148.5599;19.474;7.8819E-5;-7.6E-7;0;Globalstar
11.79389208;0.001442;51.9899;40.4788;149.8883;291.5254;-3.2045E-5;-8.3E-7;0;Globalstar
11.79389164;0.0014422;51.9899;38.0441;151.6391;308.7059;-7.7251E-5;-8.6E-7;0;Globalstar
11.79389179;0.001442;51.9899;37.3454;152.1027;10.0928;-4.7637E-5;-8.4E-7;0;Globalstar
11.79389161;0.0014418;51.9899;34.7421;153.9221;303.0662;-5.3965E-5;-8.4E-7;0;Globalstar
11.79389124;0.0014418;51.99;30.1228;157.1582;289.3312;-8.7977E-5;-8.6E-7;0;Globalstar
11.79389113;0.0014422;51.9899;27.6875;158.8838;307.9217;-8.233E-5;-8.6E-7;0;Globalstar
11.79389091;0.0014421;51.99;25.0589;160.7235;282.0028;-8.9689E-5;-8.7E-7;0;Globalstar
11.79389034;0.0014425;51.99;22.414;162.5786;282.7588;-0.00016575;-9.1E-7;0;Globalstar
11.7938899;0.0014408;51.9899;21.9334;162.9149;348.1046;-0.00022696;-9.5E-7;0;Globalstar
11.7938897;0.0014409;51.9898;19.9944;164.2921;275.5875;-0.00022608;-9.5E-7;0;Globalstar
11.79388945;0.00144;51.9899;17.1186;166.3188;293.7398;-0.00020164;-9.4E-7;0;Globalstar
11.79388925;0.0014391;51.9898;16.6382;166.6551;358.5137;-0.00022233;-9.5E-7;0;Globalstar
11.79388871;0.0014387;51.9897;12.2854;169.7529;269.3029;-0.00021883;-9.5E-7;0;Globalstar
11.79388853;0.0014381;51.9897;9.641;171.6303;269.2063;-0.00020045;-9.4E-7;0;Globalstar
11.7938884;0.0014378;51.9897;9.4096;171.7998;287.2102;-0.00021141;-9.4E-7;0;Globalstar
11.79388771;0.0014362;51.9896;6.7642;173.708;288.7026;-0.00023982;-9.6E-7;0;Globalstar
11.7938875;0.0014358;51.9896;4.5756;175.266;263.8502;-0.00024382;-9.6E-7;0;Globalstar
11.79388727;0.0014362;51.9895;3.8603;175.7713;352.3945;-0.00026889;-9.8E-7;0;Globalstar
11.79388731;0.0014367;51.9894;1.6991;177.3246;283.0037;-0.00024008;-9.6E-7;0;Globalstar
11.79388714;0.0014367;51.9893;359.0752;179.2108;249.411;-0.00021892;-9.5E-7;0;Globalstar
11.7938874;0.0014364;51.9893;358.5696;179.5718;355.2501;-0.00016124;-9.1E-7;0;Globalstar
11.79388712;0.001436;51.9893;356.4078;181.1267;286.792;-0.00016406;-9.1E-7;0;Globalstar
11.79388662;0.0014363;51.9892;353.9879;182.8477;279.7604;-0.00021673;-9.5E-7;0;Globalstar
11.7938867;0.0014363;51.9891;353.0948;183.487;298.7294;-0.00020849;-9.4E-7;0;Globalstar
11.79388641;0.0014369;51.9891;352.2784;184.0745;192.4279;-0.00025239;-9.7E-7;0;Globalstar
11.79388557;0.0014351;51.989;348.4881;186.8085;263.9435;-0.00026263;-9.7E-7;0;Globalstar
11.79388548;0.0014355;51.989;346.5116;188.2467;252.6054;-0.00025782;-9.7E-7;0;Globalstar
11.79388645;0.0014352;51.9889;343.3835;190.5007;322.4095;-2.2508E-5;-8.2E-7;0;Globalstar
11.79388614;0.0014318;51.9888;340.9884;192.263;274.7149;-9.5378E-6;-8.1E-7;0;Globalstar
11.79388615;0.0014312;51.9888;338.3244;194.2063;306.3673;-3.53E-7;-8.1E-7;0;Globalstar
11.7938864;0.0014318;51.9887;335.6779;196.1404;309.5034;4.3429E-5;-7.8E-7;0;Globalstar
11.79388623;0.001432;51.9887;335.4446;196.31;330.6427;6.408E-6;-8.0E-7;0;Globalstar
11.79388654;0.0014321;51.9887;333.0309;198.0816;313.573;2.632E-5;-7.9E-7;0;Globalstar
11.79388706;0.0014309;51.9885;330.3834;199.9871;318.3762;0.00019482;-6.9E-7;0;Globalstar
11.79388753;0.001431;51.9885;328.9172;201.0754;193.2877;0.00026644;-6.4E-7;0;Globalstar
